SES-12                  
1 43488U 18049A   24127.42618927 -.00000270  00000+0  00000+0 0  9992
2 43488   0.0483  70.2061 0001262 240.5800 162.4081  1.00270316 21678
FENGYUN 2H              
1 43491U 18050A   24126.97827391 -.00000130  00000+0  00000+0 0  9999
2 43491   1.0343  87.5208 0001212  20.3442 187.9685  1.00272393 21762
BEIDOU-2 IGSO-7         
1 43539U 18057A   24126.86536993 -.00000068  00000+0  00000+0 0  9992
2 43539  55.1359 169.7378 0074701 233.0766 245.7007  1.00265485 21392
TELSTAR 19V             
1 43562U 18059A   24127.40951998 -.00000281  00000+0  00000+0 0  9994
2 43562   0.0222 191.3967 0001820 262.5928 215.1885  1.00269713 21427
TELKOM 4 (MERAH PUTIH)  
1 43587U 18064A   24127.11160608 -.00000345  00000+0  00000+0 0  9996
2 43587   0.0145 275.6891 0001361 160.5960 296.3517  1.00270995 21127
TELSTAR 18V             
1 43611U 18069A   24126.72896741 -.00000296  00000+0  00000+0 0  9994
2 43611   0.0159 277.4063 0001580 130.0380 217.0537  1.00267150 20885
AZERSPACE 2 (IS-38)     
1 43632U 18074A   24127.10396490  .00000135  00000+0  00000+0 0  9993
2 43632   0.0177 271.2280 0001202 141.8515 253.9016  1.00269583 20694
HORIZONS-3E             
1 43633U 18074B   24125.61577365 -.00000033  00000+0  00000+0 0  9998
2 43633   0.0098 204.9943 0001081 115.0903 293.5731  1.00271104 20589
AEHF-4 (USA 288)        
1 43651U 18079A   24126.48521527 -.00000280  00000+0  00000+0 0  9992
2 43651   1.7289 331.0076 0050861  12.8980 347.4081  1.00269632 20543
BEIDOU-3 G1             
1 43683U 18085A   24126.89493637 -.00000279  00000+0  00000+0 0  9997
2 43683   2.0883 111.2244 0004236 348.2902 226.8096  1.00264945 20315
GSAT-29                 
1 43698U 18089A   24127.09285319  .00000084  00000+0  00000+0 0  9999
2 43698   0.0174 108.2169 0001005 333.3002 231.4221  1.00268548 20079
ES'HAIL 2               
1 43700U 18090A   24127.02849152  .00000143  00000+0  00000+0 0  9995
2 43700   0.0153 280.5591 0001398 154.9022 184.9578  1.00270462 20173
GEO-KOMPSAT-2A          
1 43823U 18100A   24127.52383187 -.00000345  00000+0  00000+0 0  9994
2 43823   0.0267  84.4507 0001734 343.1788 114.0715  1.00268825 19926
GSAT-11                 
1 43824U 18100B   24127.21021637 -.00000078  00000+0  00000+0 0  9993
2 43824   0.0246 266.4655 0007369 163.0966 304.6695  1.00270995 19898
GSAT-7A                 
1 43864U 18105A   24127.08174443  .00000025  00000+0  00000+0 0  9992
2 43864   0.1005  94.0804 0002237 308.5918 273.9857  1.00273467 19715
COSMOS 2533             
1 43867U 18107A   24127.12896623 -.00000040  00000+0  00000+0 0  9991
2 43867   0.0275 114.4896 0000479 130.7979  95.6256  1.00272953 19678
TJS-3                   
1 43874U 18110A   24127.75546135  .00000001  00000+0  00000+0 0  9998
2 43874   0.5475  88.9313 0000179 322.8532 258.1757  1.00272087 19746
CHINASAT 2D (ZX 2D)     
1 43920U 19001A   24127.52776672 -.00000338  00000+0  00000+0 0  9990
2 43920   0.0238  72.9771 0001638 165.8376 306.0570  1.00268126 19614
HELLAS-SAT 4 & SGS-1    
1 44034U 19007A   24126.90188215  .00000151  00000+0  00000+0 0  9996
2 44034   0.0708 119.1101 0004099  17.0232  91.8025  1.00272818 19614
GSAT-31                 
1 44035U 19007B   24127.10327046  .00000123  00000+0  00000+0 0  9996
2 44035   0.0703 264.7495 0003482  68.2362 336.5399  1.00275583 19222
NUSANTARA SATU          
1 44048U 19009A   24126.89493637 -.00000236  00000+0  00000+0 0  9993
2 44048   0.0485 114.6341 0003360 345.0538 232.7459  1.00271082 19024
CHINASAT 6C (ZX 6C)     
1 44067U 19012A   24126.90604810 -.00000337  00000+0  00000+0 0  9999
2 44067   0.0884  94.5882 0001586 303.5943 282.6789  1.00269000 18993
WGS 10 (USA 291)        
1 44071U 19014A   24126.71021896  .00000045  00000+0  00000+0 0  9997
2 44071   0.0103 275.4072 0000348  35.7140 228.9018  1.00270490 18882
TIANLIAN 2-01           
1 44076U 19017A   24127.08730156 -.00000108  00000+0  00000+0 0  9993
2 44076   0.0250 248.1405 0003659 136.4054 308.3488  1.00270774 18865
ARABSAT-6A              
1 44186U 19021A   24126.05882543  .00000151  00000+0  00000+0 0  9991
2 44186   0.0491 345.8506 0001437  59.5832 229.6273  1.00269278 18406
BEIDOU-3 IGSO-1         
1 44204U 19023A   24126.79274780 -.00000246  00000+0  00000+0 0  9999
2 44204  57.5828  45.6673 0018932 212.9736   9.3021  1.00261492 18598
BEIDOU-2 G8             
1 44231U 19027A   24127.48669154 -.00000249  00000+0  00000+0 0  9996
2 44231   1.8466  73.6322 0002521 162.9660 307.9115  1.00267612 18330
YAMAL 601               
1 44307U 19031A   24126.89632782  .00000118  00000+0  00000+0 0  9990
2 44307   0.0123 265.3491 0002344 138.0407 192.5249  1.00271103 18176
AT&T T-16               
1 44333U 19034A   24126.96959314 -.00000116  00000+0  00000+0 0  9992
2 44333   0.0142 278.6663 0001339  11.9817 181.8762  1.00270145 17884
EUTELSAT 7C             
1 44334U 19034B   24126.67896476  .00000046  00000+0  00000+0 0  9991
2 44334   0.0739 191.0260 0003106 195.9599  88.4375  1.00270543 18359
BEIDOU-3 IGSO-2         
1 44337U 19035A   24126.86733174 -.00000066  00000+0  00000+0 0  9994
2 44337  55.1709 165.6391 0033233 208.8197 279.5808  1.00253887 17922
COSMOS 2539             
1 44457U 19048A   24127.16230098  .00000080  00000+0  00000+0 0  9997
2 44457   0.0414  99.4621 0000385 123.4860  71.9897  1.00270891 17485
EDRS-C                  
1 44475U 19049A   24126.29211474  .00000152  00000+0  00000+0 0  9998
2 44475   0.0710 255.5266 0000927 134.9891 329.4939  1.00269623 17464
INTELSAT 39 (IS-39)     
1 44476U 19049B   24126.92619032  .00000032  00000+0  00000+0 0  9998
2 44476   0.0195 277.6600 0000337   9.5012 332.4934  1.00270415 17398
AMOS-17                 
1 44479U 19050A   24127.35188052  .00000108  00000+0  00000+0 0  9998
2 44479   0.0166  77.4613 0001315 338.4442 312.4590  1.00273068 17446
AEHF-5 (USA 292)        
1 44481U 19051A   24127.09285319  .00000079  00000+0  00000+0 0  9994
2 44481   2.8027 307.2889 0046448   4.2579   0.9187  1.00266558 17514
EUTELSAT 5 WEST B       
1 44624U 19067A   24126.67896476 -.00000044  00000+0  00000+0 0  9998
2 44624   0.0754  31.2362 0002795  12.8484  59.3711  1.00271306 16705
MEV-1                   
1 44625U 19067B   24125.88174347 -.00000204  00000+0  00000+0 0  9995
2 44625   0.0591  79.4701 0000924 351.3914  82.3318  1.00271977 83838
TJS-4                   
1 44637U 19070A   24127.20466258 -.00000170  00000+0  00000+0 0  9997
2 44637   0.0672  73.2297 0004264 357.6832 310.8125  1.00269619 16798
BEIDOU-3 IGSO-3         
1 44709U 19073A   24126.85023845 -.00000208  00000+0  00000+0 0  9993
2 44709  56.1237 289.1696 0037500 179.9500 179.9588  1.00262430 16717
TIBA-1                  
1 44800U 19080A   24126.90188215  .00000154  00000+0  00000+0 0  9991
2 44800   0.0581   4.6758 0001842  43.5598 176.1840  1.00270403 16316
INMARSAT GX5            
1 44801U 19080B   24127.35188052  .00000074  00000+0  00000+0 0  9992
2 44801   0.0435 358.2783 0001790  42.8644 321.2246  1.00274439 16357
JCSAT-18 (KACIFIC 1)    
1 44868U 19091A   24126.57363248 -.00000203  00000+0  00000+0 0  9997
2 44868   0.0127 282.8032 0000452 328.5225 329.1059  1.00269662 16261
ELEKTRO-L 3             
1 44903U 19095A   24126.92063318 -.00000099  00000+0  00000+0 0  9998
2 44903   0.0526  58.8460 0001096 352.4269 220.4431  1.00271717 15955
SHIJIAN-20 (SJ-20)      
1 44910U 19097A   24127.21021637 -.00000020  00000+0  00000+0 0  9993
2 44910   2.9339  84.3609 0005061 355.5395 288.3712  1.00270040 15958
TJS-5                   
1 44978U 20002A   24127.11160608 -.00000343  00000+0  00000+0 0  9994
2 44978   0.4807  85.0079 0003280 193.4054  93.7563  1.00269060 15958
GSAT-30                 
1 45026U 20005A   24126.07584420 -.00000167  00000+0  00000+0 0  9992
2 45026   0.0391 101.6624 0003166 337.5530 254.5163  1.00269873 15754
EUTELSAT KONNECT        
1 45027U 20005B   24126.67896476  .00000048  00000+0  00000+0 0  9993
2 45027   0.0642  89.2322 0000324 178.8856 207.5422  1.00270267 16587
JCSAT-17                
1 45245U 20013A   24126.90552727 -.00000328  00000+0  00000+0 0  9990
2 45245   5.6157 349.6063 0002659  45.7395 290.8882  1.00270432 15486
GEO-KOMPSAT-2B          
1 45246U 20013B   24127.52383186 -.00000345  00000+0  00000+0 0  9990
2 45246   0.0132 279.2259 0001168  27.9003 234.5740  1.00268673 15512
BEIDOU-3 G2             
1 45344U 20017A   24127.20466258 -.00000142  00000+0  00000+0 0  9995
2 45344   2.2675  27.9570 0000547   9.4972 340.7876  1.00272152 15530
AEHF-6 (USA 298)        
1 45465U 20022B   24126.68243551 -.00000308  00000+0  00000+0 0  9999
2 45465   4.3261 298.7061 0044374   8.7256 299.9702  1.00266986 15265
BEIDOU-3 G3             
1 45807U 20040A   24126.78890793 -.00000355  00000+0  00000+0 0  9998
2 45807   0.7115  36.4191 0005131 301.9093 280.2939  1.00265437 14320
APSTAR-6D               
1 45863U 20045A   24127.53180931 -.00000319  00000+0  00000+0 0  9995
2 45863   0.0704  87.3961 0002505 344.1270 118.7946  1.00271270 14119
KOREASAT 116            
1 45920U 20048A   24126.71864041 -.00000364  00000+0  00000+0 0  9992
2 45920   0.0123 286.3138 0000917 104.7327 207.9320  1.00273469 13896
EXPRESS 103             
1 45985U 20053A   24126.88743848 -.00000282  00000+0  00000+0 0  9997
2 45985   0.0159 273.1333 0000290  47.0032 320.0842  1.00272051 13907
EXPRESS 80              
1 45986U 20053B   24126.15685982 -.00000138  00000+0  00000+0 0  9992
2 45986   0.0211 279.0142 0001624 287.1213 153.8603  1.00272661 13881
BSAT-4B                 
1 46112U 20056A   24126.89145013 -.00000352  00000+0  00000+0 0  9992
2 46112   0.0824 107.9359 0003220 352.4477 194.6170  1.00269841 13646
MEV-2                   
1 46113U 20056B   24126.25466163 -.00000013  00000+0  00000+0 0  9999
2 46113   0.0110 278.3854 0000640 132.1053 263.7942  1.00269365 72803
